$$SOE
2459580.500000000, A.D. 2022-Jan-01 00:00:00.0000, -2.778186736266972E+08, -3.907812285525122E+08, -6.123033487605123E+07,
2459587.500000000, A.D. 2022-Jan-08 00:00:00.0000, -2.696015722883416E+08, -3.962767396702249E+08, -5.958804882585910E+07,
2459594.500000000, A.D. 2022-Jan-15 00:00:00.0000, -2.612683398125403E+08, -4.016014924212112E+08, -5.792008532281098E+07,
2459601.500000000, A.D. 2022-Jan-22 00:00:00.0000, -2.528222930451759E+08, -4.067527793920109E+08, -5.622710375586918E+07,
2459608.500000000, A.D. 2022-Jan-29 00:00:00.0000, -2.442668133319277E+08, -4.117279532801954E+08, -5.450977746868762E+07,
2459615.500000000, A.D. 2022-Feb-05 00:00:00.0000, -2.356053478040130E+08, -4.165244293665353E+08, -5.276879343895563E+07,
2459622.500000000, A.D. 2022-Feb-12 00:00:00.0000, -2.268414084374335E+08, -4.211396890540538E+08, -5.100485223211563E+07,
2459629.500000000, A.D. 2022-Feb-19 00:00:00.0000, -2.179785702104093E+08, -4.255712821039507E+08, -4.921866791439483E+07,
2459636.500000000, A.D. 2022-Feb-26 00:00:00.0000, -2.090204696699064E+08, -4.298168282894951E+08, -4.741096786388594E+07,
2459643.500000000, A.D. 2022-Mar-05 00:00:00.0000, -1.999708037471842E+08, -4.338740190826576E+08, -4.558249254469332E+07,
2459650.500000000, A.D. 2022-Mar-12 00:00:00.0000, -1.908333285996265E+08, -4.377406194372352E+08, -4.373399526999143E+07,
2459657.500000000, A.D. 2022-Mar-19 00:00:00.0000, -1.816118584071054E+08, -4.414144696387664E+08, -4.186624195846739E+07,
2459664.500000000, A.D. 2022-Mar-26 00:00:00.0000, -1.723102641003333E+08, -4.448934872255390E+08, -3.998001088691530E+07,
2459671.500000000, A.D. 2022-Apr-02 00:00:00.0000, -1.629324719536864E+08, -4.481756690342813E+08, -3.807609244981626E+07,
2459678.500000000, A.D. 2022-Apr-09 00:00:00.0000, -1.534824617705932E+08, -4.512590933625541E+08, -3.615528895029902E+07,
2459685.500000000, A.D. 2022-Apr-16 00:00:00.0000, -1.439642643038896E+08, -4.541419215900008E+08, -3.421841440153766E+07,
2459692.500000000, A.D. 2022-Apr-23 00:00:00.0000, -1.343819591787414E+08, -4.568223981703070E+08, -3.226629413342145E+07,
2459699.500000000, A.D. 2022-Apr-30 00:00:00.0000, -1.247396751863115E+08, -4.592988512359189E+08, -3.029976421654820E+07,
2459706.500000000, A.D. 2022-May-07 00:00:00.0000, -1.150415898838534E+08, -4.615696957880054E+08, -2.831967114622176E+07,
2459713.500000000, A.D. 2022-May-14 00:00:00.0000, -1.052919271120914E+08, -4.636334364338455E+08, -2.632687166610020E+07,
2459720.500000000, A.D. 2022-May-21 00:00:00.0000, -9.549495446251178E+07, -4.654886689122720E+08, -2.432223248332652E+07,
2459727.500000000, A.D. 2022-May-28 00:00:00.0000, -8.565498117500497E+07, -4.671340813636689E+08, -2.230662990943027E+07,
2459734.500000000, A.D. 2022-Jun-04 00:00:00.0000, -7.577635618998002E+07, -4.685684556539562E+08, -2.028094947772896E+07,
2459741.500000000, A.D. 2022-Jun-11 00:00:00.0000, -6.586346621086790E+07, -4.697906687463704E+08, -1.824608555010471E+07,
2459748.500000000, A.D. 2022-Jun-18 00:00:00.0000, -5.592073373831440E+07, -4.707996941038196E+08, -1.620294091552117E+07,
2459755.500000000, A.D. 2022-Jun-25 00:00:00.0000, -4.595261504640248E+07, -4.715946031516317E+08, -1.415242638569838E+07,
2459762.500000000, A.D. 2022-Jul-02 00:00:00.0000, -3.596359796685646E+07, -4.721745668637084E+08, -1.209546040565839E+07,
2459769.500000000, A.D. 2022-Jul-09 00:00:00.0000, -2.595819909132231E+07, -4.725388572927806E+08, -1.003296870052123E+07,
2459776.500000000, A.D. 2022-Jul-16 00:00:00.0000, -1.594096044771202E+07, -4.726868479597585E+08, -7.965883865031123E+06,
2459783.500000000, A.D. 2022-Jul-23 00:00:00.0000, -5.916447850159131E+06, -4.726180130217662E+08, -5.895144687847346E+06,
2459790.500000000, A.D. 2022-Jul-30 00:00:00.0000, 4.110749160630792E+06, -4.723319285696622E+08, -3.821695492508650E+06,
2459797.500000000, A.D. 2022-Aug-06 00:00:00.0000, 1.413601938464822E+07, -4.718282754049061E+08, -1.746485772349209E+06,
2459804.500000000, A.D. 2022-Aug-13 00:00:00.0000, 2.415473321275220E+07, -4.711068405400676E+08, 3.295301812264919E+05,
2459811.500000000, A.D. 2022-Aug-20 00:00:00.0000, 3.416224548836517E+07, -4.701675179244247E+08, 2.405393759972930E+06,
2459818.500000000, A.D. 2022-Aug-27 00:00:00.0000, 4.415389804676698E+07, -4.690103091186858E+08, 4.480142563915104E+06,
2459825.500000000, A.D. 2022-Sep-03 00:00:00.0000, 5.412502217783602E+07, -4.676353240266206E+08, 6.552810938465953E+06,
2459832.500000000, A.D. 2022-Sep-10 00:00:00.0000, 6.407094110030321E+07, -4.660427816567360E+08, 8.622430516989887E+06,
2459839.500000000, A.D. 2022-Sep-17 00:00:00.0000, 7.398697247512583E+07, -4.642330109128357E+08, 1.068803076555321E+07,
2459846.500000000, A.D. 2022-Sep-24 00:00:00.0000, 8.386843101680057E+07, -4.622064514619450E+08, 1.274863951964366E+07,
2459853.500000000, A.D. 2022-Oct-01 00:00:00.0000, 9.371063144080301E+07, -4.599636547001827E+08, 1.480328348849145E+07,
2459860.500000000, A.D. 2022-Oct-08 00:00:00.0000, 1.035088921521780E+08, -4.575052842931849E+08, 1.685098873176599E+07,
2459867.500000000, A.D. 2022-Oct-15 00:00:00.0000, 1.132585387406094E+08, -4.548321150903421E+08, 1.889078129150885E+07,
2459874.500000000, A.D. 2022-Oct-22 00:00:00.0000, 1.229549050972974E+08, -4.519450320941741E+08, 2.092168804098651E+07,
2459881.500000000, A.D. 2022-Oct-29 00:00:00.0000, 1.325933346490654E+08, -4.488450320753443E+08, 2.294273730839658E+07,
2459888.500000000, A.D. 2022-Nov-05 00:00:00.0000, 1.421691838071595E+08, -4.455332250906857E+08, 2.495295930601761E+07,
2459895.500000000, A.D. 2022-Nov-12 00:00:00.0000, 1.516778256635220E+08, -4.420108346364719E+08, 2.695138664792928E+07,
2459902.500000000, A.D. 2022-Nov-19 00:00:00.0000, 1.611146532122304E+08, -4.382791973902938E+08, 2.893705494371185E+07,
2459909.500000000, A.D. 2022-Nov-26 00:00:00.0000, 1.704750823550740E+08, -4.343397629380259E+08, 3.090900341103075E+07,
2459916.500000000, A.D. 2022-Dec-03 00:00:00.0000, 1.797545548535433E+08, -4.301940934965054E+08, 3.286627549037316E+07,
2459923.500000000, A.D. 2022-Dec-10 00:00:00.0000, 1.889485412683923E+08, -4.258438636118434E+08, 3.480791945861024E+07,
2459930.500000000, A.D. 2022-Dec-17 00:00:00.0000, 1.980525439069375E+08, -4.212908598560930E+08, 3.673298903614098E+07,
2459937.500000000, A.D. 2022-Dec-24 00:00:00.0000, 2.070620998835883E+08, -4.165369805853054E+08, 3.864054397106919E+07,
2459944.500000000, A.D. 2022-Dec-31 00:00:00.0000, 2.159727846485388E+08, -4.115842356492680E+08, 4.052965057533900E+07,
2459951.500000000, A.D. 2023-Jan-07 00:00:00.0000, 2.247802161053637E+08, -4.064347450899705E+08, 4.239938227949119E+07,
2459958.500000000, A.D. 2023-Jan-14 00:00:00.0000, 2.334800573480693E+08, -4.010907363327278E+08, 4.424882042658764E+07,
2459965.500000000, A.D. 2023-Jan-21 00:00:00.0000, 2.420680173694476E+08, -3.955545430430372E+08, 4.607705510460283E+07,
2459972.500000000, A.D. 2023-Jan-28 00:00:00.0000, 2.505398534053152E+08, -3.898286058448586E+08, 4.788318566426645E+07,
2459979.500000000, A.D. 2023-Feb-04 00:00:00.0000, 2.588913747028126E+08, -3.839154718736869E+08, 4.966632118855532E+07,
2459986.500000000, A.D. 2023-Feb-11 00:00:00.0000, 2.671184459136493E+08, -3.778177933591139E+08, 5.142558106230725E+07,
2459993.500000000, A.D. 2023-Feb-18 00:00:00.0000, 2.752169900449129E+08, -3.715383260604954E+08, 5.316009557991624E+07,
2460000.500000000, A.D. 2023-Feb-25 00:00:00.0000, 2.831829912263079E+08, -3.650799277176948E+08, 5.486900655313712E+07,
2460007.500000000, A.D. 2023-Mar-04 00:00:00.0000, 2.910124973922403E+08, -3.584455564983915E+08, 5.655146791050614E+07,
2460014.500000000, A.D. 2023-Mar-11 00:00:00.0000, 2.987016229035458E+08, -3.516382694418702E+08, 5.820664628510419E+07,
2460021.500000000, A.D. 2023-Mar-18 00:00:00.0000, 3.062465511520732E+08, -3.446612209490777E+08, 5.983372158150342E+07,
2460028.500000000, A.D. 2023-Mar-25 00:00:00.0000, 3.136435373479979E+08, -3.375176613663836E+08, 6.143188749859686E+07,
2460035.500000000, A.D. 2023-Apr-01 00:00:00.0000, 3.208889119117576E+08, -3.302109352705177E+08, 6.300035200103621E+07,
2460042.500000000, A.D. 2023-Apr-08 00:00:00.0000, 3.279790838528095E+08, -3.227444782319603E+08, 6.453833789572410E+07,
2460049.500000000, A.D. 2023-Apr-15 00:00:00.0000, 3.349105417946499E+08, -3.151218131656658E+08, 6.604508363700709E+07,
2460056.500000000, A.D. 2023-Apr-22 00:00:00.0000, 3.416798544507553E+08, -3.073465493224098E+08, 6.751984394420227E+07,
2460063.500000000, A.D. 2023-Apr-29 00:00:00.0000, 3.482836732829980E+08, -2.994223816687492E+08, 6.896189016366337E+07,
2460070.500000000, A.D. 2023-May-06 00:00:00.0000, 3.547187355798147E+08, -2.913530888765303E+08, 7.037051068178433E+07,
2460077.500000000, A.D. 2023-May-13 00:00:00.0000, 3.609818669746555E+08, -2.831425308181611E+08, 7.174501140490913E+07,
2460084.500000000, A.D. 2023-May-20 00:00:00.0000, 3.670699836359677E+08, -2.747946460613870E+08, 7.308471624378392E+07,
2460091.500000000, A.D. 2023-May-27 00:00:00.0000, 3.729800943193948E+08, -2.663134493957069E+08, 7.438896758158697E+07,
2460098.500000000, A.D. 2023-Jun-03 00:00:00.0000, 3.787093023370736E+08, -2.577030293673377E+08, 7.565712672156344E+07,
2460105.500000000, A.D. 2023-Jun-10 00:00:00.0000, 3.842548074650677E+08, -2.489675458395709E+08, 7.688857431010084E+07,
2460112.500000000, A.D. 2023-Jun-17 00:00:00.0000, 3.896139078750300E+08, -2.401112276416073E+08, 7.808271072115606E+07,
2460119.500000000, A.D. 2023-Jun-24 00:00:00.0000, 3.947840024073001E+08, -2.311383702527404E+08, 7.923895637613672E+07,
2460126.500000000, A.D. 2023-Jul-01 00:00:00.0000, 3.997625934369903E+08, -2.220533326962447E+08, 8.035675204305670E+07,
2460133.500000000, A.D. 2023-Jul-08 00:00:00.0000, 4.045472886586244E+08, -2.128605328247963E+08, 8.143555933579516E+07,
2460140.500000000, A.D. 2023-Jul-15 00:00:00.0000, 4.091358005110540E+08, -2.035644438320663E+08, 8.247486129919465E+07,
2460147.500000000, A.D. 2023-Jul-22 00:00:00.0000, 4.135259467611958E+08, -1.941695930283515E+08, 8.347416267159913E+07,
$$EOE